UNKNOWN                 
1 81036U          26071.03973043  .00009025  00000+0  23960-1 0  9999
2 81036  66.0843 335.0914 2555227 144.1625 236.1279  9.32087562 30053
UNKNOWN                 
1 81052U          26072.94730640  .00007529  00000+0  19480-2 0  9992
2 81052  65.7696 158.7296 0562107 263.9644  89.7128 13.84276641612938
UNKNOWN                 
1 81069U          26060.21358265  .00003327  00000+0  43876-2 0  9994
2 81069 100.3842 331.1182 0061934 212.0506 147.6859 13.61107376526606
UNKNOWN                 
1 81078U          26067.15934509  .00000511  00000+0  16353-1 0  9996
2 81078  65.1065 123.9356 0196687 342.0725  48.5209 11.22497223504211
UNKNOWN                 
1 81111U          26072.59973296  .00012881  00000+0  25746-2 0  9994
2 81111  62.8780 293.6603 3846770   0.8257 359.6955  7.58731520278828
UNKNOWN                 
1 81123U          26072.48881045  .00001242  00000+0  12053-2 0  9991
2 81123  99.9631 164.1671 0004692 180.3431 179.7717 13.81825005618817
UNKNOWN                 
1 81134U          26073.56295771  .00000380  00000+0  13639-2 0  9991
2 81134  90.2556   6.1106 0025415 143.2104 217.0765 12.93023735474471
UNKNOWN                 
1 81161U          26048.81954540  .00000650  00000+0  71615-3 0  9996
2 81161 100.3950 261.9225 0059845 108.2143 252.5529 13.75735350565357
UNKNOWN                 
1 81219U          26065.40950483  .00000666  00000+0  60648-3 0  9997
2 81219  82.9250 303.2965 0021691 343.1433  16.9004 13.81884643619076
UNKNOWN                 
1 81228U          26068.41775306  .00007121  00000+0  21222-2 0  9997
2 81228  70.5256  82.0437 0064941 236.4160 123.0764 14.42163832638585
UNKNOWN                 
1 81254U          26072.66923564  .00003870  00000+0  24966-2 0  9994
2 81254 100.3788 152.2468 0076116 190.1920 169.7701 14.02258141625631
UNKNOWN                 
1 81279U          26073.58453054  .00001334  00000+0  51728-3 0  9995
2 81279  98.1141 130.5976 0208117 115.8439 246.4364 14.20212762475635
