CCSDS_OMM_VERS = 2.0
CREATION_DATE  = 
ORIGINATOR     = 

OBJECT_NAME    = UNKNOWN
OBJECT_ID      = 
CENTER_NAME    = EARTH
REF_FRAME      = TEME
TIME_SYSTEM    = UTC
MEAN_ELEMENT_THEORY = SGP/SGP4

EPOCH          = 2026-03-12T00:57:12.709152
MEAN_MOTION    = 9.32087562
ECCENTRICITY   = .2555227
INCLINATION    = 66.0843
RA_OF_ASC_NODE = 335.0914
ARG_OF_PERICENTER = 144.1625
MEAN_ANOMALY   = 236.1279

EPHEMERIS_TYPE = 0
CLASSIFICATION_TYPE = U
NORAD_CAT_ID   = 81036
ELEMENT_SET_NO = 999
REV_AT_EPOCH   = 3005
BSTAR          = .2396E-1
MEAN_MOTION_DOT = .9025E-4
MEAN_MOTION_DDOT = 0

CCSDS_OMM_VERS = 2.0
CREATION_DATE  = 
ORIGINATOR     = 

OBJECT_NAME    = UNKNOWN
OBJECT_ID      = 
CENTER_NAME    = EARTH
REF_FRAME      = TEME
TIME_SYSTEM    = UTC
MEAN_ELEMENT_THEORY = SGP/SGP4

EPOCH          = 2026-03-13T22:44:07.272960
MEAN_MOTION    = 13.84276641
ECCENTRICITY   = .0562107
INCLINATION    = 65.7696
RA_OF_ASC_NODE = 158.7296
ARG_OF_PERICENTER = 263.9644
MEAN_ANOMALY   = 89.7128

EPHEMERIS_TYPE = 0
CLASSIFICATION_TYPE = U
NORAD_CAT_ID   = 81052
ELEMENT_SET_NO = 999
REV_AT_EPOCH   = 61293
BSTAR          = .1948E-2
MEAN_MOTION_DOT = .7529E-4
MEAN_MOTION_DDOT = 0

CCSDS_OMM_VERS = 2.0
CREATION_DATE  = 
ORIGINATOR     = 

OBJECT_NAME    = UNKNOWN
OBJECT_ID      = 
CENTER_NAME    = EARTH
REF_FRAME      = TEME
TIME_SYSTEM    = UTC
MEAN_ELEMENT_THEORY = SGP/SGP4

EPOCH          = 2026-03-01T05:07:33.540960
MEAN_MOTION    = 13.61107376
ECCENTRICITY   = .0061934
INCLINATION    = 100.3842
RA_OF_ASC_NODE = 331.1182
ARG_OF_PERICENTER = 212.0506
MEAN_ANOMALY   = 147.6859

EPHEMERIS_TYPE = 0
CLASSIFICATION_TYPE = U
NORAD_CAT_ID   = 81069
ELEMENT_SET_NO = 999
REV_AT_EPOCH   = 52660
BSTAR          = .43876E-2
MEAN_MOTION_DOT = .3327E-4
MEAN_MOTION_DDOT = 0

CCSDS_OMM_VERS = 2.0
CREATION_DATE  = 
ORIGINATOR     = 

OBJECT_NAME    = UNKNOWN
OBJECT_ID      = 
CENTER_NAME    = EARTH
REF_FRAME      = TEME
TIME_SYSTEM    = UTC
MEAN_ELEMENT_THEORY = SGP/SGP4

EPOCH          = 2026-03-08T03:49:27.415776
MEAN_MOTION    = 11.22497223
ECCENTRICITY   = .0196687
INCLINATION    = 65.1065
RA_OF_ASC_NODE = 123.9356
ARG_OF_PERICENTER = 342.0725
MEAN_ANOMALY   = 48.5209

EPHEMERIS_TYPE = 0
CLASSIFICATION_TYPE = U
NORAD_CAT_ID   = 81078
ELEMENT_SET_NO = 999
REV_AT_EPOCH   = 50421
BSTAR          = .16353E-1
MEAN_MOTION_DOT = .511E-5
MEAN_MOTION_DDOT = 0

CCSDS_OMM_VERS = 2.0
CREATION_DATE  = 
ORIGINATOR     = 

OBJECT_NAME    = UNKNOWN
OBJECT_ID      = 
CENTER_NAME    = EARTH
REF_FRAME      = TEME
TIME_SYSTEM    = UTC
MEAN_ELEMENT_THEORY = SGP/SGP4

EPOCH          = 2026-03-13T14:23:36.927744
MEAN_MOTION    = 7.58731520
ECCENTRICITY   = .384677
INCLINATION    = 62.8780
RA_OF_ASC_NODE = 293.6603
ARG_OF_PERICENTER = 0.8257
MEAN_ANOMALY   = 359.6955

EPHEMERIS_TYPE = 0
CLASSIFICATION_TYPE = U
NORAD_CAT_ID   = 81111
ELEMENT_SET_NO = 999
REV_AT_EPOCH   = 27882
BSTAR          = .25746E-2
MEAN_MOTION_DOT = .12881E-3
MEAN_MOTION_DDOT = 0

CCSDS_OMM_VERS = 2.0
CREATION_DATE  = 
ORIGINATOR     = 

OBJECT_NAME    = UNKNOWN
OBJECT_ID      = 
CENTER_NAME    = EARTH
REF_FRAME      = TEME
TIME_SYSTEM    = UTC
MEAN_ELEMENT_THEORY = SGP/SGP4

EPOCH          = 2026-03-13T11:43:53.222880
MEAN_MOTION    = 13.81825005
ECCENTRICITY   = .0004692
INCLINATION    = 99.9631
RA_OF_ASC_NODE = 164.1671
ARG_OF_PERICENTER = 180.3431
MEAN_ANOMALY   = 179.7717

EPHEMERIS_TYPE = 0
CLASSIFICATION_TYPE = U
NORAD_CAT_ID   = 81123
ELEMENT_SET_NO = 999
REV_AT_EPOCH   = 61881
BSTAR          = .12053E-2
MEAN_MOTION_DOT = .1242E-4
MEAN_MOTION_DDOT = 0

CCSDS_OMM_VERS = 2.0
CREATION_DATE  = 
ORIGINATOR     = 

OBJECT_NAME    = UNKNOWN
OBJECT_ID      = 
CENTER_NAME    = EARTH
REF_FRAME      = TEME
TIME_SYSTEM    = UTC
MEAN_ELEMENT_THEORY = SGP/SGP4

EPOCH          = 2026-03-14T13:30:39.546144
MEAN_MOTION    = 12.93023735
ECCENTRICITY   = .0025415
INCLINATION    = 90.2556
RA_OF_ASC_NODE = 6.1106
ARG_OF_PERICENTER = 143.2104
MEAN_ANOMALY   = 217.0765

EPHEMERIS_TYPE = 0
CLASSIFICATION_TYPE = U
NORAD_CAT_ID   = 81134
ELEMENT_SET_NO = 999
REV_AT_EPOCH   = 47447
BSTAR          = .13639E-2
MEAN_MOTION_DOT = .38E-5
MEAN_MOTION_DDOT = 0

CCSDS_OMM_VERS = 2.0
CREATION_DATE  = 
ORIGINATOR     = 

OBJECT_NAME    = UNKNOWN
OBJECT_ID      = 
CENTER_NAME    = EARTH
REF_FRAME      = TEME
TIME_SYSTEM    = UTC
MEAN_ELEMENT_THEORY = SGP/SGP4

EPOCH          = 2026-02-17T19:40:08.722560
MEAN_MOTION    = 13.75735350
ECCENTRICITY   = .0059845
INCLINATION    = 100.3950
RA_OF_ASC_NODE = 261.9225
ARG_OF_PERICENTER = 108.2143
MEAN_ANOMALY   = 252.5529

EPHEMERIS_TYPE = 0
CLASSIFICATION_TYPE = U
NORAD_CAT_ID   = 81161
ELEMENT_SET_NO = 999
REV_AT_EPOCH   = 56535
BSTAR          = .71615E-3
MEAN_MOTION_DOT = .65E-5
MEAN_MOTION_DDOT = 0

CCSDS_OMM_VERS = 2.0
CREATION_DATE  = 
ORIGINATOR     = 

OBJECT_NAME    = UNKNOWN
OBJECT_ID      = 
CENTER_NAME    = EARTH
REF_FRAME      = TEME
TIME_SYSTEM    = UTC
MEAN_ELEMENT_THEORY = SGP/SGP4

EPOCH          = 2026-03-06T09:49:41.217312
MEAN_MOTION    = 13.81884643
ECCENTRICITY   = .0021691
INCLINATION    = 82.9250
RA_OF_ASC_NODE = 303.2965
ARG_OF_PERICENTER = 343.1433
MEAN_ANOMALY   = 16.9004

EPHEMERIS_TYPE = 0
CLASSIFICATION_TYPE = U
NORAD_CAT_ID   = 81219
ELEMENT_SET_NO = 999
REV_AT_EPOCH   = 61907
BSTAR          = .60648E-3
MEAN_MOTION_DOT = .666E-5
MEAN_MOTION_DDOT = 0

CCSDS_OMM_VERS = 2.0
CREATION_DATE  = 
ORIGINATOR     = 

OBJECT_NAME    = UNKNOWN
OBJECT_ID      = 
CENTER_NAME    = EARTH
REF_FRAME      = TEME
TIME_SYSTEM    = UTC
MEAN_ELEMENT_THEORY = SGP/SGP4

EPOCH          = 2026-03-09T10:01:33.864384
MEAN_MOTION    = 14.42163832
ECCENTRICITY   = .0064941
INCLINATION    = 70.5256
RA_OF_ASC_NODE = 82.0437
ARG_OF_PERICENTER = 236.4160
MEAN_ANOMALY   = 123.0764

EPHEMERIS_TYPE = 0
CLASSIFICATION_TYPE = U
NORAD_CAT_ID   = 81228
ELEMENT_SET_NO = 999
REV_AT_EPOCH   = 63858
BSTAR          = .21222E-2
MEAN_MOTION_DOT = .7121E-4
MEAN_MOTION_DDOT = 0

CCSDS_OMM_VERS = 2.0
CREATION_DATE  = 
ORIGINATOR     = 

OBJECT_NAME    = UNKNOWN
OBJECT_ID      = 
CENTER_NAME    = EARTH
REF_FRAME      = TEME
TIME_SYSTEM    = UTC
MEAN_ELEMENT_THEORY = SGP/SGP4

EPOCH          = 2026-03-13T16:03:41.959296
MEAN_MOTION    = 14.02258141
ECCENTRICITY   = .0076116
INCLINATION    = 100.3788
RA_OF_ASC_NODE = 152.2468
ARG_OF_PERICENTER = 190.1920
MEAN_ANOMALY   = 169.7701

EPHEMERIS_TYPE = 0
CLASSIFICATION_TYPE = U
NORAD_CAT_ID   = 81254
ELEMENT_SET_NO = 999
REV_AT_EPOCH   = 62563
BSTAR          = .24966E-2
MEAN_MOTION_DOT = .387E-4
MEAN_MOTION_DDOT = 0

CCSDS_OMM_VERS = 2.0
CREATION_DATE  = 
ORIGINATOR     = 

OBJECT_NAME    = UNKNOWN
OBJECT_ID      = 
CENTER_NAME    = EARTH
REF_FRAME      = TEME
TIME_SYSTEM    = UTC
MEAN_ELEMENT_THEORY = SGP/SGP4

EPOCH          = 2026-03-14T14:01:43.438656
MEAN_MOTION    = 14.20212762
ECCENTRICITY   = .0208117
INCLINATION    = 98.1141
RA_OF_ASC_NODE = 130.5976
ARG_OF_PERICENTER = 115.8439
MEAN_ANOMALY   = 246.4364

EPHEMERIS_TYPE = 0
CLASSIFICATION_TYPE = U
NORAD_CAT_ID   = 81279
ELEMENT_SET_NO = 999
REV_AT_EPOCH   = 47563
BSTAR          = .51728E-3
MEAN_MOTION_DOT = .1334E-4
MEAN_MOTION_DDOT = 0

